{"type": "FeatureCollection", "features": [ {"type": "Feature", "properties": {"norad_id": 35144, "name": "FENGYUN 1C DEB", "group": "fengyun-1c-debris", "lat": 56.190660701997324, "lon": -49.861077081598836, "alt_km": 707.936906970589, "timestamp": "2025-12-26T21:25:53.297875+00:00", "meta": {"OBJECT_NAME": "FENGYUN 1C DEB", "OBJECT_ID": "1999-025DLY", "EPOCH": "2025-12-25T18:32:40.900704", "MEAN_MOTION": 14.59485754, "ECCENTRICITY": 0.00270446, "INCLINATION": 98.6996, "RA_OF_ASC_NODE": 115.748, "ARG_OF_PERICENTER": 319.8084, "MEAN_ANOMALY": 40.1114, "EPHEMERIS_TYPE": 0, "CLASSIFICATION_TYPE": "U", "NORAD_CAT_ID": 35144, "ELEMENT_SET_NO": 999, "REV_AT_EPOCH": 65403, "BSTAR": 0.0026853326, "MEAN_MOTION_DOT": 0.00012776, "MEAN_MOTION_DDOT": 0}, "tle": {"line1": "1 35144U 99025DLY 25359.77269561  .00012776  00000+0  26853-2 0  9997", "line2": "2 35144  98.6996 115.7480 0027044 319.8084  40.1114 14.59485754654033"}}, "geometry": {"type": "Point", "coordinates": [-49.861077081598836, 56.190660701997324]}}, {"type": "Feature", "properties": {"norad_id": 35147, "name": "FENGYUN 1C DEB", "group": "fengyun-1c-debris", "lat": 4.124107211921083, "lon": 75.89530367081547, "alt_km": 665.5317796342788, "timestamp": "2025-12-26T21:25:53.297885+00:00", "meta": {"OBJECT_NAME": "FENGYUN 1C DEB", "OBJECT_ID": "1999-025DMB", "EPOCH": "2025-12-24T04:16:29.549856", "MEAN_MOTION": 14.74616621, "ECCENTRICITY": 0.00275467, "INCLINATION": 99.4856, "RA_OF_ASC_NODE": 73.4109, "ARG_OF_PERICENTER": 164.4152, "MEAN_ANOMALY": 195.7906, "EPHEMERIS_TYPE": 0, "CLASSIFICATION_TYPE": "U", "NORAD_CAT_ID": 35147, "ELEMENT_SET_NO": 999, "REV_AT_EPOCH": 74473, "BSTAR": 0.0024185076, "MEAN_MOTION_DOT": 0.00016193, "MEAN_MOTION_DDOT": 0}, "tle": {"line1": "1 35147U 99025DMB 25358.17811979  .00016193  00000+0  24185-2 0  9992", "line2": "2 35147  99.4856  73.4109 0027546 164.4152 195.7906 14.74616621744734"}}, "geometry": {"type": "Point", "coordinates": [75.89530367081547, 4.124107211921083]}}, {"type": "Feature", "properties": {"norad_id": 35152, "name": "FENGYUN 1C DEB", "group": "fengyun-1c-debris", "lat": 32.35313910232312, "lon": 10.331311114645384, "alt_km": 1114.1275055177039, "timestamp": "2025-12-26T21:25:53.297895+00:00", "meta": {"OBJECT_NAME": "FENGYUN 1C DEB", "OBJECT_ID": "1999-025DMG", "EPOCH": "2025-12-24T11:08:58.902432", "MEAN_MOTION": 13.76447569, "ECCENTRICITY": 0.0194175, "INCLINATION": 99.8191, "RA_OF_ASC_NODE": 181.5284, "ARG_OF_PERICENTER": 345.1491, "MEAN_ANOMALY": 14.4005, "EPHEMERIS_TYPE": 0, "CLASSIFICATION_TYPE": "U", "NORAD_CAT_ID": 35152, "ELEMENT_SET_NO": 999, "REV_AT_EPOCH": 62354, "BSTAR": 0.00059063629, "MEAN_MOTION_DOT": 6.15e-06, "MEAN_MOTION_DDOT": 0}, "tle": {"line1": "1 35152U 99025DMG 25358.46457063  .00000615  00000+0  59064-3 0  9997", "line2": "2 35152  99.8191 181.5284 0194175 345.1491  14.4005 13.76447569623544"}}, "geometry": {"type": "Point", "coordinates": [10.331311114645384, 32.35313910232312]}}, {"type": "Feature", "properties": {"norad_id": 35153, "name": "FENGYUN 1C DEB", "group": "fengyun-1c-debris", "lat": -79.51825704123135, "lon": -48.02070274800934, "alt_km": 721.2589098687076, "timestamp": "2025-12-26T21:25:53.297907+00:00", "meta": {"OBJECT_NAME": "FENGYUN 1C DEB", "OBJECT_ID": "1999-025DMH", "EPOCH": "2025-12-26T10:24:24.463872", "MEAN_MOTION": 14.73816749, "ECCENTRICITY": 0.01707086, "INCLINATION": 98.9017, "RA_OF_ASC_NODE": 253.572, "ARG_OF_PERICENTER": 40.6412, "MEAN_ANOMALY": 320.739, "EPHEMERIS_TYPE": 0, "CLASSIFICATION_TYPE": "U", "NORAD_CAT_ID": 35153, "ELEMENT_SET_NO": 999, "REV_AT_EPOCH": 97419, "BSTAR": 0.00043987344, "MEAN_MOTION_DOT": 3.567e-05, "MEAN_MOTION_DDOT": 0}, "tle": {"line1": "1 35153U 99025DMH 25360.43361648  .00003567  00000+0  43987-3 0  9997", "line2": "2 35153  98.9017 253.5720 0170708  40.6412 320.7390 14.73816749974191"}}, "geometry": {"type": "Point", "coordinates": [-48.02070274800934, -79.51825704123135]}}, {"type": "Feature", "properties": {"norad_id": 35154, "name": "FENGYUN 1C DEB", "group": "fengyun-1c-debris", "lat": -49.86680209504488, "lon": 134.62238135799552, "alt_km": 757.4561205737828, "timestamp": "2025-12-26T21:25:53.297919+00:00", "meta": {"OBJECT_NAME": "FENGYUN 1C DEB", "OBJECT_ID": "1999-025DMJ", "EPOCH": "2025-12-24T01:58:11.654976", "MEAN_MOTION": 14.18912921, "ECCENTRICITY": 0.0178909, "INCLINATION": 99.4221, "RA_OF_ASC_NODE": 120.2762, "ARG_OF_PERICENTER": 10.5644, "MEAN_ANOMALY": 349.921, "EPHEMERIS_TYPE": 0, "CLASSIFICATION_TYPE": "U", "NORAD_CAT_ID": 35154, "ELEMENT_SET_NO": 999, "REV_AT_EPOCH": 64738, "BSTAR": 0.00026986372, "MEAN_MOTION_DOT": 6.08e-06, "MEAN_MOTION_DDOT": 0}, "tle": {"line1": "1 35154U 99025DMJ 25358.08207934  .00000608  00000+0  26986-3 0  9996", "line2": "2 35154  99.4221 120.2762 0178909  10.5644 349.9210 14.18912921647385"}}, "geometry": {"type": "Point", "coordinates": [134.62238135799552, -49.86680209504488]}}, {"type": "Feature", "properties": {"norad_id": 35155, "name": "FENGYUN 1C DEB", "group": "fengyun-1c-debris", "lat": 81.4669752023173, "lon": -82.65475539752298, "alt_km": 810.1296331268386, "timestamp": "2025-12-26T21:25:53.297930+00:00", "meta": {"OBJECT_NAME": "FENGYUN 1C DEB", "OBJECT_ID": "1999-025DMK", "EPOCH": "2025-12-24T18:15:01.567584", "MEAN_MOTION": 14.19312867, "ECCENTRICITY": 0.00258689, "INCLINATION": 98.5001, "RA_OF_ASC_NODE": 9.9422, "ARG_OF_PERICENTER": 39.4189, "MEAN_ANOMALY": 320.8864, "EPHEMERIS_TYPE": 0, "CLASSIFICATION_TYPE": "U", "NORAD_CAT_ID": 35155, "ELEMENT_SET_NO": 999, "REV_AT_EPOCH": 72884, "BSTAR": 0.00057480531, "MEAN_MOTION_DOT": 1.169e-05, "MEAN_MOTION_DDOT": 0}, "tle": {"line1": "1 35155U 99025DMK 25358.76043481  .00001169  00000+0  57481-3 0  9994", "line2": "2 35155  98.5001   9.9422 0025868  39.4189 320.8864 14.19312867728845"}}, "geometry": {"type": "Point", "coordinates": [-82.65475539752298, 81.4669752023173]}}, {"type": "Feature", "properties": {"norad_id": 35156, "name": "FENGYUN 1C DEB", "group": "fengyun-1c-debris", "lat": 81.24054746340349, "lon": -102.09587508462293, "alt_km": 824.0363535253846, "timestamp": "2025-12-26T21:25:53.297940+00:00", "meta": {"OBJECT_NAME": "FENGYUN 1C DEB", "OBJECT_ID": "1999-025DML", "EPOCH": "2025-12-22T09:45:46.789920", "MEAN_MOTION": 14.10637167, "ECCENTRICITY": 0.00374137, "INCLINATION": 98.7528, "RA_OF_ASC_NODE": 342.5755, "ARG_OF_PERICENTER": 121.1131, "MEAN_ANOMALY": 239.3719, "EPHEMERIS_TYPE": 0, "CLASSIFICATION_TYPE": "U", "NORAD_CAT_ID": 35156, "ELEMENT_SET_NO": 999, "REV_AT_EPOCH": 64180, "BSTAR": 0.00031397822, "MEAN_MOTION_DOT": 5.21e-06, "MEAN_MOTION_DDOT": 0}, "tle": {"line1": "1 35156U 99025DML 25356.40679155  .00000521  00000+0  31398-3 0  9997", "line2": "2 35156  98.7528 342.5755 0037413 121.1131 239.3719 14.10637167641809"}}, "geometry": {"type": "Point", "coordinates": [-102.09587508462293, 81.24054746340349]}}, {"type": "Feature", "properties": {"norad_id": 35159, "name": "FENGYUN 1C DEB", "group": "fengyun-1c-debris", "lat": 80.08473812969234, "lon": -40.44639824351988, "alt_km": 729.5946946280692, "timestamp": "2025-12-26T21:25:53.297951+00:00", "meta": {"OBJECT_NAME": "FENGYUN 1C DEB", "OBJECT_ID": "1999-025DMP", "EPOCH": "2025-12-23T17:16:37.371936", "MEAN_MOTION": 14.45286937, "ECCENTRICITY": 0.00094944, "INCLINATION": 98.8378, "RA_OF_ASC_NODE": 73.3712, "ARG_OF_PERICENTER": 158.5401, "MEAN_ANOMALY": 355.5286, "EPHEMERIS_TYPE": 0, "CLASSIFICATION_TYPE": "U", "NORAD_CAT_ID": 35159, "ELEMENT_SET_NO": 999, "REV_AT_EPOCH": 61639, "BSTAR": 0.0019831289, "MEAN_MOTION_DOT": 6.923e-05, "MEAN_MOTION_DDOT": 0}, "tle": {"line1": "1 35159U 99025DMP 25357.71987699  .00006923  00000+0  19831-2 0  9999", "line2": "2 35159  98.8378  73.3712 0009494 158.5401 355.5286 14.45286937616399"}}, "geometry": {"type": "Point", "coordinates": [-40.44639824351988, 80.08473812969234]}}, {"type": "Feature", "properties": {"norad_id": 35160, "name": "FENGYUN 1C DEB", "group": "fengyun-1c-debris", "lat": 61.92152907096529, "lon": 98.60768177527714, "alt_km": 853.2628311028639, "timestamp": "2025-12-26T21:25:53.297961+00:00", "meta": {"OBJECT_NAME": "FENGYUN 1C DEB", "OBJECT_ID": "1999-025DMQ", "EPOCH": "2025-12-24T13:56:33.825120", "MEAN_MOTION": 14.36001877, "ECCENTRICITY": 0.01764255, "INCLINATION": 99.1558, "RA_OF_ASC_NODE": 113.7491, "ARG_OF_PERICENTER": 204.8514, "MEAN_ANOMALY": 154.4098, "EPHEMERIS_TYPE": 0, "CLASSIFICATION_TYPE": "U", "NORAD_CAT_ID": 35160, "ELEMENT_SET_NO": 999, "REV_AT_EPOCH": 65101, "BSTAR": 0.00054836097, "MEAN_MOTION_DOT": 1.847e-05, "MEAN_MOTION_DDOT": 0}, "tle": {"line1": "1 35160U 99025DMQ 25358.58094705  .00001847  00000+0  54836-3 0  9999", "line2": "2 35160  99.1558 113.7491 0176425 204.8514 154.4098 14.36001877651010"}}, "geometry": {"type": "Point", "coordinates": [98.60768177527714, 61.92152907096529]}}, {"type": "Feature", "properties": {"norad_id": 35165, "name": "FENGYUN 1C DEB", "group": "fengyun-1c-debris", "lat": 80.92797413309474, "lon": 14.887251629499293, "alt_km": 765.870756446674, "timestamp": "2025-12-26T21:25:53.297971+00:00", "meta": {"OBJECT_NAME": "FENGYUN 1C DEB", "OBJECT_ID": "1999-025DMV", "EPOCH": "2025-12-21T05:22:21.779616", "MEAN_MOTION": 14.33882696, "ECCENTRICITY": 0.0020007, "INCLINATION": 98.8797, "RA_OF_ASC_NODE": 87.3309, "ARG_OF_PERICENTER": 36.4089, "MEAN_ANOMALY": 323.8451, "EPHEMERIS_TYPE": 0, "CLASSIFICATION_TYPE": "U", "NORAD_CAT_ID": 35165, "ELEMENT_SET_NO": 999, "REV_AT_EPOCH": 89842, "BSTAR": 0.0014686, "MEAN_MOTION_DOT": 4.055e-05, "MEAN_MOTION_DDOT": 0}, "tle": {"line1": "1 35165U 99025DMV 25355.22386319  .00004055  00000+0  14686-2 0  9999", "line2": "2 35165  98.8797  87.3309 0020007  36.4089 323.8451 14.33882696898426"}}, "geometry": {"type": "Point", "coordinates": [14.887251629499293, 80.92797413309474]}}]}